{
  "type": "FeatureCollection",
  "features": [
    {
      "type": "Feature",
      "properties": {
        "norad_id": 36036,
        "name": "SMOS",
        "group": "resource",
        "lat": -80.3850507479155,
        "lon": -114.99237767685263,
        "alt_km": 767.3862752660998,
        "timestamp": "2025-12-24T22:42:21.678905+00:00",
        "meta_object_name": "SMOS",
        "meta_object_id": "2009-059A",
        "meta_epoch": "2025-12-24T06:25:22.684224",
        "meta_mean_motion": 14.3975124,
        "meta_eccentricity": 0.00010536,
        "meta_inclination": 98.4381,
        "meta_ra_of_asc_node": 183.1454,
        "meta_arg_of_pericenter": 83.6297,
        "meta_mean_anomaly": 276.5011,
        "meta_ephemeris_type": 0,
        "meta_classification_type": "U",
        "meta_norad_cat_id": 36036,
        "meta_element_set_no": 999,
        "meta_rev_at_epoch": 84828,
        "meta_bstar": 0.00013712107,
        "meta_mean_motion_dot": 3.86e-06,
        "meta_mean_motion_ddot": 0,
        "tle_line1": "1 36036U 09059A   25358.26762366  .00000386  00000+0  13712-3 0  9995",
        "tle_line2": "2 36036  98.4381 183.1454 0001053  83.6297 276.5011 14.39751240848281"
      },
      "geometry": {
        "type": "Point",
        "coordinates": [
          -114.99237767685263,
          -80.3850507479155
        ]
      }
    },
    {
      "type": "Feature",
      "properties": {
        "norad_id": 36110,
        "name": "YAOGAN-7",
        "group": "resource",
        "lat": -33.02503643587693,
        "lon": -114.07638358642424,
        "alt_km": 641.6733041236957,
        "timestamp": "2025-12-24T22:42:21.678915+00:00",
        "meta_object_name": "YAOGAN-7",
        "meta_object_id": "2009-069A",
        "meta_epoch": "2025-12-24T06:36:22.373280",
        "meta_mean_motion": 14.77748594,
        "meta_eccentricity": 0.00234292,
        "meta_inclination": 98.0294,
        "meta_ra_of_asc_node": 239.9907,
        "meta_arg_of_pericenter": 241.966,
        "meta_mean_anomaly": 117.918,
        "meta_ephemeris_type": 0,
        "meta_classification_type": "U",
        "meta_norad_cat_id": 36110,
        "meta_element_set_no": 999,
        "meta_rev_at_epoch": 86379,
        "meta_bstar": 9.5756308e-05,
        "meta_mean_motion_dot": 6.36e-06,
        "meta_mean_motion_ddot": 0,
        "tle_line1": "1 36110U 09069A   25358.27525895  .00000636  00000+0  95756-4 0  9991",
        "tle_line2": "2 36110  98.0294 239.9907 0023429 241.9660 117.9180 14.77748594863798"
      },
      "geometry": {
        "type": "Point",
        "coordinates": [
          -114.07638358642424,
          -33.02503643587693
        ]
      }
    },
    {
      "type": "Feature",
      "properties": {
        "norad_id": 36605,
        "name": "TANDEM-X",
        "group": "resource",
        "lat": -48.13722133636983,
        "lon": 175.75613566902828,
        "alt_km": 516.232505942995,
        "timestamp": "2025-12-24T22:42:21.678926+00:00",
        "meta_object_name": "TANDEM-X",
        "meta_object_id": "2010-030A",
        "meta_epoch": "2025-12-23T10:55:27.931296",
        "meta_mean_motion": 15.19148406,
        "meta_eccentricity": 0.00017726,
        "meta_inclination": 97.4453,
        "meta_ra_of_asc_node": 2.6785,
        "meta_arg_of_pericenter": 93.7268,
        "meta_mean_anomaly": 266.4169,
        "meta_ephemeris_type": 0,
        "meta_classification_type": "U",
        "meta_norad_cat_id": 36605,
        "meta_element_set_no": 999,
        "meta_rev_at_epoch": 85996,
        "meta_bstar": 4.175648e-05,
        "meta_mean_motion_dot": 8.1e-06,
        "meta_mean_motion_ddot": 0,
        "tle_line1": "1 36605U 10030A   25357.45518439  .00000810  00000+0  41756-4 0  9990",
        "tle_line2": "2 36605  97.4453   2.6785 0001772  93.7268 266.4169 15.19148406859964"
      },
      "geometry": {
        "type": "Point",
        "coordinates": [
          175.75613566902828,
          -48.13722133636983
        ]
      }
    },
    {
      "type": "Feature",
      "properties": {
        "norad_id": 36795,
        "name": "CARTOSAT-2B",
        "group": "resource",
        "lat": -62.04270186478274,
        "lon": 62.512771201524,
        "alt_km": 642.5127906795096,
        "timestamp": "2025-12-24T22:42:21.678937+00:00",
        "meta_object_name": "CARTOSAT-2B",
        "meta_object_id": "2010-035A",
        "meta_epoch": "2025-12-24T06:45:02.363040",
        "meta_mean_motion": 14.78740039,
        "meta_eccentricity": 0.00126335,
        "meta_inclination": 97.7834,
        "meta_ra_of_asc_node": 46.9356,
        "meta_arg_of_pericenter": 42.4235,
        "meta_mean_anomaly": 317.7951,
        "meta_ephemeris_type": 0,
        "meta_classification_type": "U",
        "meta_norad_cat_id": 36795,
        "meta_element_set_no": 999,
        "meta_rev_at_epoch": 83400,
        "meta_bstar": 7.268716e-05,
        "meta_mean_motion_dot": 4.84e-06,
        "meta_mean_motion_ddot": 0,
        "tle_line1": "1 36795U 10035A   25358.28127735  .00000484  00000+0  72687-4 0  9996",
        "tle_line2": "2 36795  97.7834  46.9356 0012633  42.4235 317.7951 14.78740039834009"
      },
      "geometry": {
        "type": "Point",
        "coordinates": [
          62.512771201524,
          -62.04270186478274
        ]
      }
    },
    {
      "type": "Feature",
      "properties": {
        "norad_id": 36834,
        "name": "YAOGAN-10",
        "group": "resource",
        "lat": -79.96712570707017,
        "lon": 70.50395302376553,
        "alt_km": 622.9756791626105,
        "timestamp": "2025-12-24T22:42:21.678948+00:00",
        "meta_object_name": "YAOGAN-10",
        "meta_object_id": "2010-038A",
        "meta_epoch": "2025-12-24T07:28:55.746912",
        "meta_mean_motion": 14.84651505,
        "meta_eccentricity": 0.0001428,
        "meta_inclination": 97.9131,
        "meta_ra_of_asc_node": 18.0452,
        "meta_arg_of_pericenter": 81.759,
        "meta_mean_anomaly": 46.1879,
        "meta_ephemeris_type": 0,
        "meta_classification_type": "U",
        "meta_norad_cat_id": 36834,
        "meta_element_set_no": 999,
        "meta_rev_at_epoch": 83125,
        "meta_bstar": 0.00034659314,
        "meta_mean_motion_dot": 2.878e-05,
        "meta_mean_motion_ddot": 0,
        "tle_line1": "1 36834U 10038A   25358.31175633  .00002878  00000+0  34659-3 0  9992",
        "tle_line2": "2 36834  97.9131  18.0452 0001428  81.7590  46.1879 14.84651505831254"
      },
      "geometry": {
        "type": "Point",
        "coordinates": [
          70.50395302376553,
          -79.96712570707017
        ]
      }
    },
    {
      "type": "Feature",
      "properties": {
        "norad_id": 37216,
        "name": "COSMO-SKYMED 4",
        "group": "resource",
        "lat": 82.08739554661878,
        "lon": 85.30632871979438,
        "alt_km": 614.1278431356595,
        "timestamp": "2025-12-24T22:42:21.678965+00:00",
        "meta_object_name": "COSMO-SKYMED 4",
        "meta_object_id": "2010-060A",
        "meta_epoch": "2025-12-24T07:42:58.948704",
        "meta_mean_motion": 14.82156507,
        "meta_eccentricity": 0.00013483,
        "meta_inclination": 97.8802,
        "meta_ra_of_asc_node": 179.4699,
        "meta_arg_of_pericenter": 82.6993,
        "meta_mean_anomaly": 277.4373,
        "meta_ephemeris_type": 0,
        "meta_classification_type": "U",
        "meta_norad_cat_id": 37216,
        "meta_element_set_no": 999,
        "meta_rev_at_epoch": 81866,
        "meta_bstar": 4.0618596e-05,
        "meta_mean_motion_dot": 2.71e-06,
        "meta_mean_motion_ddot": 0,
        "tle_line1": "1 37216U 10060A   25358.32151561  .00000271  00000+0  40619-4 0  9996",
        "tle_line2": "2 37216  97.8802 179.4699 0001348  82.6993 277.4373 14.82156507818664"
      },
      "geometry": {
        "type": "Point",
        "coordinates": [
          85.30632871979438,
          82.08739554661878
        ]
      }
    },
    {
      "type": "Feature",
      "properties": {
        "norad_id": 37387,
        "name": "RESOURCESAT-2",
        "group": "resource",
        "lat": -77.30249726856383,
        "lon": 105.7889974900678,
        "alt_km": 827.2442004623572,
        "timestamp": "2025-12-24T22:42:21.678975+00:00",
        "meta_object_name": "RESOURCESAT-2",
        "meta_object_id": "2011-015A",
        "meta_epoch": "2025-12-24T04:30:15.477696",
        "meta_mean_motion": 14.21601622,
        "meta_eccentricity": 0.00058583,
        "meta_inclination": 98.7861,
        "meta_ra_of_asc_node": 61.6874,
        "meta_arg_of_pericenter": 11.3661,
        "meta_mean_anomaly": 348.7648,
        "meta_ephemeris_type": 0,
        "meta_classification_type": "U",
        "meta_norad_cat_id": 37387,
        "meta_element_set_no": 999,
        "meta_rev_at_epoch": 76131,
        "meta_bstar": 8.4671181e-05,
        "meta_mean_motion_dot": 1.41e-06,
        "meta_mean_motion_ddot": 0,
        "tle_line1": "1 37387U 11015A   25358.18767914  .00000141  00000+0  84671-4 0  9997",
        "tle_line2": "2 37387  98.7861  61.6874 0005858  11.3661 348.7648 14.21601622761318"
      },
      "geometry": {
        "type": "Point",
        "coordinates": [
          105.7889974900678,
          -77.30249726856383
        ]
      }
    }
  ]
}